{"type": "FeatureCollection", "features": [ {"type": "Feature", "properties": {"norad_id": 36681, "name": "FENGYUN 1C DEB", "group": "fengyun-1c-debris", "lat": 57.08556225281351, "lon": -37.83661622382963, "alt_km": 828.1416598225269, "timestamp": "2025-12-02T21:34:01.559480+00:00", "meta": {"OBJECT_NAME": "FENGYUN 1C DEB", "OBJECT_ID": "1999-025DZB", "EPOCH": "2025-11-19T06:21:10.816992", "MEAN_MOTION": 14.10187867, "ECCENTRICITY": 0.00454, "INCLINATION": 98.6964, "RA_OF_ASC_NODE": 322.6587, "ARG_OF_PERICENTER": 56.031, "MEAN_ANOMALY": 304.5163, "EPHEMERIS_TYPE": 0, "CLASSIFICATION_TYPE": "U", "NORAD_CAT_ID": 36681, "ELEMENT_SET_NO": 999, "REV_AT_EPOCH": 72427, "BSTAR": 0.00080116575, "MEAN_MOTION_DOT": 1.39e-05, "MEAN_MOTION_DDOT": 0}, "tle": {"line1": "1 36681U 99025DZB 25323.26470853  .00001390  00000+0  80117-3 0  9991", "line2": "2 36681  98.6964 322.6587 0045400  56.0310 304.5163 14.10187867724276"}}, "geometry": {"type": "Point", "coordinates": [-37.83661622382963, 57.08556225281351]}}, {"type": "Feature", "properties": {"norad_id": 36682, "name": "FENGYUN 1C DEB", "group": "fengyun-1c-debris", "lat": -73.33630236040783, "lon": 31.932923399863647, "alt_km": 887.9214542129512, "timestamp": "2025-12-02T21:34:01.559490+00:00", "meta": {"OBJECT_NAME": "FENGYUN 1C DEB", "OBJECT_ID": "1999-025DZC", "EPOCH": "2025-11-25T04:16:29.525664", "MEAN_MOTION": 13.70056399, "ECCENTRICITY": 0.02353921, "INCLINATION": 98.4824, "RA_OF_ASC_NODE": 235.0215, "ARG_OF_PERICENTER": 324.0882, "MEAN_ANOMALY": 34.464, "EPHEMERIS_TYPE": 0, "CLASSIFICATION_TYPE": "U", "NORAD_CAT_ID": 36682, "ELEMENT_SET_NO": 999, "REV_AT_EPOCH": 61152, "BSTAR": 0.0021541592, "MEAN_MOTION_DOT": 2.264e-05, "MEAN_MOTION_DDOT": 0}, "tle": {"line1": "1 36682U 99025DZC 25329.17811951  .00002264  00000+0  21542-2 0  9993", "line2": "2 36682  98.4824 235.0215 0235392 324.0882  34.4640 13.70056399611520"}}, "geometry": {"type": "Point", "coordinates": [31.932923399863647, -73.33630236040783]}}, {"type": "Feature", "properties": {"norad_id": 36684, "name": "FENGYUN 1C DEB", "group": "fengyun-1c-debris", "lat": 11.912579266983174, "lon": 65.00803324579448, "alt_km": 594.7515789328809, "timestamp": "2025-12-02T21:34:01.559500+00:00", "meta": {"OBJECT_NAME": "FENGYUN 1C DEB", "OBJECT_ID": "1999-025DZE", "EPOCH": "2025-11-29T05:08:15.352512", "MEAN_MOTION": 14.94340548, "ECCENTRICITY": 0.00233763, "INCLINATION": 99.4631, "RA_OF_ASC_NODE": 62.5893, "ARG_OF_PERICENTER": 152.2473, "MEAN_ANOMALY": 207.9995, "EPHEMERIS_TYPE": 0, "CLASSIFICATION_TYPE": "U", "NORAD_CAT_ID": 36684, "ELEMENT_SET_NO": 999, "REV_AT_EPOCH": 65699, "BSTAR": 0.0042844606, "MEAN_MOTION_DOT": 0.00046534, "MEAN_MOTION_DDOT": 0}, "tle": {"line1": "1 36684U 99025DZE 25333.21406658  .00046534  00000+0  42845-2 0  9996", "line2": "2 36684  99.4631  62.5893 0023376 152.2473 207.9995 14.94340548656997"}}, "geometry": {"type": "Point", "coordinates": [65.00803324579448, 11.912579266983174]}}, {"type": "Feature", "properties": {"norad_id": 36686, "name": "FENGYUN 1C DEB", "group": "fengyun-1c-debris", "lat": -9.495579271553966, "lon": -14.352910004039817, "alt_km": 661.937947800111, "timestamp": "2025-12-02T21:34:01.559510+00:00", "meta": {"OBJECT_NAME": "FENGYUN 1C DEB", "OBJECT_ID": "1999-025DZG", "EPOCH": "2025-11-29T06:32:59.021376", "MEAN_MOTION": 14.76948787, "ECCENTRICITY": 0.0105492, "INCLINATION": 99.002, "RA_OF_ASC_NODE": 163.1249, "ARG_OF_PERICENTER": 95.3844, "MEAN_ANOMALY": 265.9408, "EPHEMERIS_TYPE": 0, "CLASSIFICATION_TYPE": "U", "NORAD_CAT_ID": 36686, "ELEMENT_SET_NO": 999, "REV_AT_EPOCH": 65653, "BSTAR": 0.00088035366, "MEAN_MOTION_DOT": 6.731e-05, "MEAN_MOTION_DDOT": 0}, "tle": {"line1": "1 36686U 99025DZG 25333.27290534  .00006731  00000+0  88035-3 0  9995", "line2": "2 36686  99.0020 163.1249 0105492  95.3844 265.9408 14.76948787656531"}}, "geometry": {"type": "Point", "coordinates": [-14.352910004039817, -9.495579271553966]}}, {"type": "Feature", "properties": {"norad_id": 36687, "name": "FENGYUN 1C DEB", "group": "fengyun-1c-debris", "lat": 35.94462725403413, "lon": 57.33644951192347, "alt_km": 890.0496583401655, "timestamp": "2025-12-02T21:34:01.559521+00:00", "meta": {"OBJECT_NAME": "FENGYUN 1C DEB", "OBJECT_ID": "1999-025DZH", "EPOCH": "2025-11-29T23:17:46.121280", "MEAN_MOTION": 14.04513829, "ECCENTRICITY": 0.00903607, "INCLINATION": 98.7165, "RA_OF_ASC_NODE": 60.9118, "ARG_OF_PERICENTER": 301.5515, "MEAN_ANOMALY": 57.6853, "EPHEMERIS_TYPE": 0, "CLASSIFICATION_TYPE": "U", "NORAD_CAT_ID": 36687, "ELEMENT_SET_NO": 999, "REV_AT_EPOCH": 62543, "BSTAR": 0.00029818459, "MEAN_MOTION_DOT": 4.51e-06, "MEAN_MOTION_DDOT": 0}, "tle": {"line1": "1 36687U 99025DZH 25333.97067270  .00000451  00000+0  29818-3 0  9999", "line2": "2 36687  98.7165  60.9118 0090360 301.5515  57.6853 14.04513829625432"}}, "geometry": {"type": "Point", "coordinates": [57.33644951192347, 35.94462725403413]}}, {"type": "Feature", "properties": {"norad_id": 36689, "name": "FENGYUN 1C DEB", "group": "fengyun-1c-debris", "lat": -2.645795269213397, "lon": 51.43203667090435, "alt_km": 1161.507318325761, "timestamp": "2025-12-02T21:34:01.559531+00:00", "meta": {"OBJECT_NAME": "FENGYUN 1C DEB", "OBJECT_ID": "1999-025DZK", "EPOCH": "2025-11-28T10:04:14.213280", "MEAN_MOTION": 13.74189275, "ECCENTRICITY": 0.03131537, "INCLINATION": 98.4796, "RA_OF_ASC_NODE": 227.8431, "ARG_OF_PERICENTER": 334.7216, "MEAN_ANOMALY": 23.8887, "EPHEMERIS_TYPE": 0, "CLASSIFICATION_TYPE": "U", "NORAD_CAT_ID": 36689, "ELEMENT_SET_NO": 999, "REV_AT_EPOCH": 58016, "BSTAR": 0.0027905602, "MEAN_MOTION_DOT": 3.71e-05, "MEAN_MOTION_DDOT": 0}, "tle": {"line1": "1 36689U 99025DZK 25332.41960895  .00003710  00000+0  27906-2 0  9990", "line2": "2 36689  98.4796 227.8431 0313153 334.7216  23.8887 13.74189275580169"}}, "geometry": {"type": "Point", "coordinates": [51.43203667090435, -2.645795269213397]}}, {"type": "Feature", "properties": {"norad_id": 36691, "name": "FENGYUN 1C DEB", "group": "fengyun-1c-debris", "lat": -67.56722198119684, "lon": -0.9386407972261764, "alt_km": 793.3178018730796, "timestamp": "2025-12-02T21:34:01.559541+00:00", "meta": {"OBJECT_NAME": "FENGYUN 1C DEB", "OBJECT_ID": "1999-025DZM", "EPOCH": "2025-11-30T20:23:52.583424", "MEAN_MOTION": 14.07012514, "ECCENTRICITY": 0.01293883, "INCLINATION": 98.6377, "RA_OF_ASC_NODE": 335.4994, "ARG_OF_PERICENTER": 269.1447, "MEAN_ANOMALY": 89.4896, "EPHEMERIS_TYPE": 0, "CLASSIFICATION_TYPE": "U", "NORAD_CAT_ID": 36691, "ELEMENT_SET_NO": 999, "REV_AT_EPOCH": 59442, "BSTAR": 0.0022318526, "MEAN_MOTION_DOT": 3.98e-05, "MEAN_MOTION_DDOT": 0}, "tle": {"line1": "1 36691U 99025DZM 25334.84991416  .00003980  00000+0  22319-2 0  9997", "line2": "2 36691  98.6377 335.4994 0129388 269.1447  89.4896 14.07012514594421"}}, "geometry": {"type": "Point", "coordinates": [-0.9386407972261764, -67.56722198119684]}}, {"type": "Feature", "properties": {"norad_id": 36692, "name": "FENGYUN 1C DEB", "group": "fengyun-1c-debris", "lat": 52.96098136443734, "lon": -131.3355658812488, "alt_km": 830.4606852605566, "timestamp": "2025-12-02T21:34:01.559551+00:00", "meta": {"OBJECT_NAME": "FENGYUN 1C DEB", "OBJECT_ID": "1999-025DZN", "EPOCH": "2025-11-25T11:49:05.069856", "MEAN_MOTION": 13.9342911, "ECCENTRICITY": 0.01150468, "INCLINATION": 99.9941, "RA_OF_ASC_NODE": 234.1824, "ARG_OF_PERICENTER": 58.6594, "MEAN_ANOMALY": 302.5763, "EPHEMERIS_TYPE": 0, "CLASSIFICATION_TYPE": "U", "NORAD_CAT_ID": 36692, "ELEMENT_SET_NO": 999, "REV_AT_EPOCH": 59565, "BSTAR": 0.0004654865, "MEAN_MOTION_DOT": 5.93e-06, "MEAN_MOTION_DDOT": 0}, "tle": {"line1": "1 36692U 99025DZN 25329.49241979  .00000593  00000+0  46549-3 0  9994", "line2": "2 36692  99.9941 234.1824 0115046  58.6594 302.5763 13.93429110595656"}}, "geometry": {"type": "Point", "coordinates": [-131.3355658812488, 52.96098136443734]}}, {"type": "Feature", "properties": {"norad_id": 36695, "name": "FENGYUN 1C DEB", "group": "fengyun-1c-debris", "lat": -43.06283386547843, "lon": -33.679151434449885, "alt_km": 919.6469272506265, "timestamp": "2025-12-02T21:34:01.559561+00:00", "meta": {"OBJECT_NAME": "FENGYUN 1C DEB", "OBJECT_ID": "1999-025DZR", "EPOCH": "2025-12-02T05:08:42.495936", "MEAN_MOTION": 14.43719766, "ECCENTRICITY": 0.0256767, "INCLINATION": 98.2188, "RA_OF_ASC_NODE": 317.8964, "ARG_OF_PERICENTER": 162.2314, "MEAN_ANOMALY": 198.8066, "EPHEMERIS_TYPE": 0, "CLASSIFICATION_TYPE": "U", "NORAD_CAT_ID": 36695, "ELEMENT_SET_NO": 999, "REV_AT_EPOCH": 89416, "BSTAR": 0.00021067, "MEAN_MOTION_DOT": 1.017e-05, "MEAN_MOTION_DDOT": 0}, "tle": {"line1": "1 36695U 99025DZR 25336.21438074  .00001017  00000+0  21067-3 0  9999", "line2": "2 36695  98.2188 317.8964 0256767 162.2314 198.8066 14.43719766894161"}}, "geometry": {"type": "Point", "coordinates": [-33.679151434449885, -43.06283386547843]}}, {"type": "Feature", "properties": {"norad_id": 36696, "name": "FENGYUN 1C DEB", "group": "fengyun-1c-debris", "lat": 6.528079440326733, "lon": -15.61984882040295, "alt_km": 747.1146704237926, "timestamp": "2025-12-02T21:34:01.559583+00:00", "meta": {"OBJECT_NAME": "FENGYUN 1C DEB", "OBJECT_ID": "1999-025DZS", "EPOCH": "2025-11-24T18:16:57.315936", "MEAN_MOTION": 14.38880004, "ECCENTRICITY": 0.0023648, "INCLINATION": 98.9926, "RA_OF_ASC_NODE": 336.8941, "ARG_OF_PERICENTER": 22.9721, "MEAN_ANOMALY": 337.2518, "EPHEMERIS_TYPE": 0, "CLASSIFICATION_TYPE": "U", "NORAD_CAT_ID": 36696, "ELEMENT_SET_NO": 999, "REV_AT_EPOCH": 64137, "BSTAR": 0.0024257, "MEAN_MOTION_DOT": 7.452e-05, "MEAN_MOTION_DDOT": 0}, "tle": {"line1": "1 36696U 99025DZS 25328.76177449  .00007452  00000+0  24257-2 0  9999", "line2": "2 36696  98.9926 336.8941 0023648  22.9721 337.2518 14.38880004641371"}}, "geometry": {"type": "Point", "coordinates": [-15.61984882040295, 6.528079440326733]}}]}